CCSDS_OEM_VERS = 1.0
CREATION_DATE  = 2017-05-11T11:29:54
ORIGINATOR     = GMAT USER

META_START
OBJECT_NAME          = MOPSSat_alt_35785_km_RAAN_180_004
OBJECT_ID            = SatId
CENTER_NAME          = Earth
REF_FRAME            = EME2000
TIME_SYSTEM          = UTC
START_TIME           = 2017-01-01T00:00:00.000
USEABLE_START_TIME   = 2017-01-01T00:00:00.000
USEABLE_STOP_TIME    = 2017-01-02T00:00:00.000
STOP_TIME            = 2017-01-02T00:00:00.000
INTERPOLATION        = Lagrange
INTERPOLATION_DEGREE = 7 
META_STOP


                                                                                   

2017-01-01T18:38:20.000  -7.585378644489399e+03   4.147665532516316e+04  -4.946229344922493e-01  -3.024482409011365e+00  -5.532081760710439e-01   1.207560458388020e-04
2017-01-01T18:38:30.000  -7.615621448800634e+03   4.147111221650519e+04  -4.934150695091188e-01  -3.024078303272193e+00  -5.554135279130787e-01   1.208169461323352e-04
2017-01-01T18:38:40.000  -7.645860204327739e+03   4.146554705574713e+04  -4.922065957915986e-01  -3.023672589436166e+00  -5.576185845316766e-01   1.208777902056652e-04
2017-01-01T18:38:50.000  -7.676094894957354e+03   4.145995984585247e+04  -4.909975139034534e-01  -3.023265267719194e+00  -5.598233447518581e-01   1.209385780085014e-04
2017-01-01T18:39:00.000  -7.706325504599586e+03   4.145435058979287e+04  -4.897878244081112e-01  -3.022856338337785e+00  -5.620278074003544e-01   1.209993094906264e-04
2017-01-01T18:39:10.000  -7.736552017096056e+03   4.144871929056448e+04  -4.885775278723175e-01  -3.022445801510225e+00  -5.642319712989021e-01   1.210599846017116e-04
2017-01-01T18:39:20.000  -7.766774416255772e+03   4.144306595118291e+04  -4.873666248647532e-01  -3.022033657456223e+00  -5.664358352668600e-01   1.211206032913926e-04
2017-01-01T18:39:30.000  -7.796992685871827e+03   4.143739057467873e+04  -4.861551159553237e-01  -3.021619906396582e+00  -5.686393981224251e-01   1.211811655092980e-04
2017-01-01T18:39:40.000  -7.827206809757583e+03   4.143169316409080e+04  -4.849430017137070e-01  -3.021204548552705e+00  -5.708426586852728e-01   1.212416712051247e-04
2017-01-01T18:39:50.000  -7.857416771763816e+03   4.142597372246438e+04  -4.837302827087127e-01  -3.020787584146462e+00  -5.730456157778060e-01   1.213021203286630e-04
2017-01-01T18:40:00.000  -7.887622555814015e+03   4.142023225284264e+04  -4.825169595068091e-01  -3.020369013399575e+00  -5.752482682277296e-01   1.213625128298768e-04
2017-01-01T18:40:10.000  -7.917824145812731e+03   4.141446875828502e+04  -4.813030326758282e-01  -3.019948836534949e+00  -5.774506148613678e-01   1.214228486587165e-04
2017-01-01T18:40:20.000  -7.948021526043141e+03   4.140868324178891e+04  -4.800885027689102e-01  -3.019527053770965e+00  -5.796526545326540e-01   1.214831277659265e-04
2017-01-01T18:40:30.000  -7.978214680685212e+03   4.140287570638392e+04  -4.788733703439437e-01  -3.019103665328354e+00  -5.818543860879949e-01   1.215433501020688e-04
2017-01-01T18:40:40.000  -8.008403593997873e+03   4.139704615509645e+04  -4.776576359562261e-01  -3.018678671427617e+00  -5.840558083795548e-01   1.216035156178928e-04
2017-01-01T18:40:50.000  -8.038588249613138e+03   4.139119459108591e+04  -4.764413001868811e-01  -3.018252072298946e+00  -5.862569202137831e-01   1.216636242629079e-04
2017-01-01T18:41:00.000  -8.068768631242035e+03   4.138532101750863e+04  -4.752243636144455e-01  -3.017823868172318e+00  -5.884577204028890e-01   1.217236759868112e-04
2017-01-01T18:41:10.000  -8.098944722492362e+03   4.137942543755297e+04  -4.740068268221951e-01  -3.017394059280031e+00  -5.906582077515554e-01   1.217836707391165e-04
2017-01-01T18:41:20.000  -8.129116507351014e+03   4.137350785434739e+04  -4.727886903787730e-01  -3.016962645850031e+00  -5.928583810921082e-01   1.218436084701385e-04
2017-01-01T18:41:30.000  -8.159283969785901e+03   4.136756827103587e+04  -4.715699548541649e-01  -3.016529628111384e+00  -5.950582392554882e-01   1.219034891301766e-04
2017-01-01T18:41:40.000  -8.189447093837736e+03   4.136160669076053e+04  -4.703506208160166e-01  -3.016095006293031e+00  -5.972577810779469e-01   1.219633126697054e-04
2017-01-01T18:41:50.000  -8.219605863584260e+03   4.135562311666715e+04  -4.691306888310261e-01  -3.015658780624172e+00  -5.994570053984323e-01   1.220230790392806e-04
2017-01-01T18:42:00.000  -8.249760263123557e+03   4.134961755190967e+04  -4.679101594656610e-01  -3.015220951334605e+00  -6.016559110573786e-01   1.220827881895288e-04
2017-01-01T18:42:10.000  -8.279910276538034e+03   4.134358999965734e+04  -4.666890332876165e-01  -3.014781518655250e+00  -6.038544968940746e-01   1.221424400710683e-04
2017-01-01T18:42:20.000  -8.310055887877248e+03   4.133754046309695e+04  -4.654673108664651e-01  -3.014340482818295e+00  -6.060527617454133e-01   1.222020346344927e-04
2017-01-01T18:42:30.000  -8.340197081122766e+03   4.133146894544139e+04  -4.642449927751370e-01  -3.013897844057837e+00  -6.082507044433311e-01   1.222615718302843e-04
2017-01-01T18:42:40.000  -8.370333840279594e+03   4.132537544991055e+04  -4.630220795861872e-01  -3.013453602608488e+00  -6.104483238214720e-01   1.223210516090015e-04
2017-01-01T18:42:50.000  -8.400466148979538e+03   4.131925997981383e+04  -4.617985718879697e-01  -3.013007758711377e+00  -6.126456186862653e-01   1.223804739204804e-04
2017-01-01T18:43:00.000  -8.430593990961979e+03   4.131312253845070e+04  -4.605744702650515e-01  -3.012560312606917e+00  -6.148425878519840e-01   1.224398387147990e-04
2017-01-01T18:43:10.000  -8.460717349895034e+03   4.130696312914740e+04  -4.593497753054885e-01  -3.012111264537469e+00  -6.170392301277061e-01   1.224991459419181e-04
2017-01-01T18:43:20.000  -8.490836210068559e+03   4.130078175511550e+04  -4.581244875726613e-01  -3.011660614737036e+00  -6.192355443678452e-01   1.225583955530665e-04
2017-01-01T18:43:30.000  -8.520950555702870e+03   4.129457841959284e+04  -4.568986076333630e-01  -3.011208363441531e+00  -6.214315294217455e-01   1.226175874993585e-04
2017-01-01T18:43:40.000  -8.551060371105490e+03   4.128835312581193e+04  -4.556721360514441e-01  -3.010754510886487e+00  -6.236271841451092e-01   1.226767217321113e-04
2017-01-01T18:43:50.000  -8.581165640280560e+03   4.128210587707760e+04  -4.544450734036169e-01  -3.010299057312706e+00  -6.258225073715147e-01   1.227357982020516e-04
2017-01-01T18:44:00.000  -8.611266347219020e+03   4.127583667671019e+04  -4.532174202677431e-01  -3.009842002962121e+00  -6.280174979335771e-01   1.227948168599117e-04
2017-01-01T18:44:10.000  -8.641362475898335e+03   4.126954552804443e+04  -4.519891772228042e-01  -3.009383348077713e+00  -6.302121546629308e-01   1.228537776564197e-04
2017-01-01T18:44:20.000  -8.671454009993759e+03   4.126323243449273e+04  -4.507603448607868e-01  -3.008923092908131e+00  -6.324064763691700e-01   1.229126805417585e-04
2017-01-01T18:44:30.000  -8.701540933267528e+03   4.125689739946104e+04  -4.495309237707019e-01  -3.008461237701546e+00  -6.346004618682327e-01   1.229715254663041e-04
2017-01-01T18:44:40.000  -8.731623229415489e+03   4.125054042638157e+04  -4.483009145448703e-01  -3.007997782708051e+00  -6.367941099712139e-01   1.230303123803327e-04
2017-01-01T18:44:50.000  -8.761700882745963e+03   4.124416151856953e+04  -4.470703177511690e-01  -3.007532728169206e+00  -6.389874195338725e-01   1.230890412353316e-04
2017-01-01T18:45:00.000  -8.791773877500847e+03   4.123776067936626e+04  -4.458391339607781e-01  -3.007066074328475e+00  -6.411803894071227e-01   1.231477119826872e-04
2017-01-01T18:45:10.000  -8.821842198009195e+03   4.123133791210715e+04  -4.446073637419182e-01  -3.006597821428894e+00  -6.433730184482336e-01   1.232063245739820e-04
2017-01-01T18:45:20.000  -8.851905828297167e+03   4.122489322020195e+04  -4.433750076757220e-01  -3.006127969718914e+00  -6.455653054923870e-01   1.232648789602373e-04
2017-01-01T18:45:30.000  -8.881964752377815e+03   4.121842660707599e+04  -4.421420663444732e-01  -3.005656519448129e+00  -6.477572493738079e-01   1.233233750924764e-04
2017-01-01T18:45:40.000  -8.912018954250821e+03   4.121193807616910e+04  -4.409085403315733e-01  -3.005183470867179e+00  -6.499488489257469e-01   1.233818129217226e-04
2017-01-01T18:45:50.000  -8.942068417614175e+03   4.120542763100074e+04  -4.396744302334806e-01  -3.004708824232524e+00  -6.521401029594537e-01   1.234401923984460e-04
2017-01-01T18:46:00.000  -8.972113126252791e+03   4.119889527508333e+04  -4.384397366436593e-01  -3.004232579800100e+00  -6.543310102925167e-01   1.234985134733104e-04
2017-01-01T18:46:10.000  -9.002153063882472e+03   4.119234101195671e+04  -4.372044601590133e-01  -3.003754737827846e+00  -6.565215697374843e-01   1.235567760968740e-04
2017-01-01T18:46:20.000  -9.032188214839141e+03   4.118576484503772e+04  -4.359686013515438e-01  -3.003275298564739e+00  -6.587117801521242e-01   1.236149802209152e-04
2017-01-01T18:46:30.000  -9.062218563387807e+03   4.117916677777084e+04  -4.347321607967571e-01  -3.002794262261761e+00  -6.609016403890338e-01   1.236731257971039e-04
2017-01-01T18:46:40.000  -9.092244093901028e+03   4.117254681358943e+04  -4.334951390663368e-01  -3.002311629169093e+00  -6.630911493086511e-01   1.237312127773434e-04
2017-01-01T18:46:50.000  -9.122264790378924e+03   4.116590495601904e+04  -4.322575367478296e-01  -3.001827399543636e+00  -6.652803057442561e-01   1.237892411128540e-04
2017-01-01T18:47:00.000  -9.152280636845368e+03   4.115924120859260e+04  -4.310193544284105e-01  -3.001341573642821e+00  -6.674691085308609e-01   1.238472107549266e-04
2017-01-01T18:47:10.000  -9.182291617259531e+03   4.115255557486918e+04  -4.297805926985031e-01  -3.000854151725997e+00  -6.696575564987584e-01   1.239051216547570e-04
2017-01-01T18:47:20.000  -9.212297715540270e+03   4.114584805843044e+04  -4.285412521508327e-01  -3.000365134054151e+00  -6.718456484753018e-01   1.239629737634773e-04
